{
    "links": {
        "self": "http://www.neowsapp.com/rest/v1/neo/3668955?api_key=iIulBulltgU6a56xZRHN4H3l9WmuAYTsLGpBGhQ2"
    },
    "id": "3668955",
    "neo_reference_id": "3668955",
    "name": "(2014 HL2)",
    "designation": "2014 HL2",
    "nasa_jpl_url": "http://ssd.jpl.nasa.gov/sbdb.cgi?sstr=3668955",
    "absolute_magnitude_h": 26.2,
    "estimated_diameter": {
        "kilometers": {
            "estimated_diameter_min": 0.0152951935,
            "estimated_diameter_max": 0.0342010925
        },
        "meters": {
            "estimated_diameter_min": 15.2951935344,
            "estimated_diameter_max": 34.201092472
        },
        "miles": {
            "estimated_diameter_min": 0.0095039897,
            "estimated_diameter_max": 0.021251567
        },
        "feet": {
            "estimated_diameter_min": 50.1810827555,
            "estimated_diameter_max": 112.2083122258
        }
    },
    "is_potentially_hazardous_asteroid": false,
    "close_approach_data": [
        {
            "close_approach_date": "2014-04-28",
            "close_approach_date_full": "2014-Apr-28 22:06",
            "epoch_date_close_approach": 1398722760000,
            "relative_velocity": {
                "kilometers_per_second": "11.2227890986",
                "kilometers_per_hour": "40402.0407548869",
                "miles_per_hour": "25104.2569346129"
            },
            "miss_distance": {
                "astronomical": "0.0225530201",
                "lunar": "8.7731248189",
                "kilometers": "3373883.769027187",
                "miles": "2096434.1611297006"
            },
            "orbiting_body": "Earth"
        }
    ],
    "orbital_data": {
        "orbit_id": "6",
        "orbit_determination_date": "2017-04-06 08:41:33",
        "first_observation_date": "2014-04-20",
        "last_observation_date": "2014-04-28",
        "data_arc_in_days": 8,
        "observations_used": 29,
        "orbit_uncertainty": "8",
        "minimum_orbit_intersection": ".000846616",
        "jupiter_tisserand_invariant": "3.555",
        "epoch_osculation": "2456769.5",
        "eccentricity": ".5510316280503342",
        "semi_major_axis": "2.081396875608406",
        "inclination": ".4554460442411302",
        "ascending_node_longitude": "112.5207086694984",
        "orbital_period": "1096.808416296145",
        "perihelion_distance": ".9344813666230271",
        "perihelion_argument": "146.4582950837026",
        "aphelion_distance": "3.228312384593785",
        "perihelion_time": "2456807.301946261326",
        "mean_anomaly": "347.5924542045063",
        "mean_motion": ".3282250524806311",
        "equinox": "J2000",
        "orbit_class": {
            "orbit_class_type": "APO",
            "orbit_class_description": "Near-Earth asteroid orbits which cross the Earth’s orbit similar to that of 1862 Apollo",
            "orbit_class_range": "a (semi-major axis) > 1.0 AU; q (perihelion) < 1.017 AU"
        }
    },
    "is_sentry_object": false
}